STARLINK-4770           
1 53849U 22114AH  25347.31231819  .00000416  00000+0  44247-4 0  9993
2 53849  53.2195 321.7380 0001281  88.3685 271.7454 15.08835077179933
STARLINK-4767           
1 53850U 22114AJ  25347.22396950 -.00002890  00000+0 -16350-3 0  9996
2 53850  53.2183 321.8949 0001437  88.1912 271.9245 15.08847326179927
STARLINK-4755           
1 53851U 22114AK  25347.30494695  .00000029  00000+0  19901-4 0  9997
2 53851  53.2213 321.6952 0001514 102.1574 257.9588 15.08834902179932
STARLINK-4797           
1 53852U 22114AL  25347.18582567 -.00000007  00000+0  17624-4 0  9997
2 53852  53.2196 317.3819 0001452  94.4911 265.6247 15.08837641179982
STARLINK-4794           
1 53853U 22114AM  25347.23134335  .00000796  00000+0  68103-4 0  9992
2 53853  53.2207 321.9474 0001788  91.0997 269.0200 15.08829074179925
STARLINK-4800           
1 53854U 22114AN  25347.28016631  .00002378  00000+0  16748-3 0  9991
2 53854  53.2177 312.2623 0001512  91.0476 269.0689 15.08833742180063
STARLINK-4703           
1 53855U 22114AP  25347.23598825 -.00000330  00000+0 -26542-5 0  9990
2 53855  53.2189 321.9712 0001720 101.9524 258.1661 15.08829250179920
STARLINK-4795           
1 53856U 22114AQ  25347.19918265 -.00004690  00000+0 -27695-3 0  9991
2 53856  53.2187 312.4747 0001141  86.5706 273.5416 15.08820031180052
STARLINK-4809           
1 53857U 22114AR  25347.22027843  .00000793  00000+0  67897-4 0  9996
2 53857  53.2182 321.8732 0001306  88.0765 272.0377 15.08843229179929
STARLINK-4798           
1 53858U 22114AS  25347.27647657  .00001057  00000+0  84508-4 0  9995
2 53858  53.2188 312.2387 0001159  79.7445 280.3678 15.08841671180066
STARLINK-4790           
1 53859U 22114AT  25347.22627789  .00000206  00000+0  31033-4 0  9995
2 53859  53.2213 316.9298 0001514 101.1235 258.9928 15.08829410179996
STARLINK-4799           
1 53860U 22114AU  25347.20287283 -.00002561  00000+0 -14299-3 0  9998
2 53860  53.2180 312.4893 0000916  82.8769 277.2327 15.08822698179814
STARLINK-4781           
1 53861U 22114AV  25347.20655161  .00001280  00000+0  98488-4 0  9991
2 53861  53.2203 312.5187 0001355  90.6631 269.4517 15.08836832180058
STARLINK-4788           
1 53863U 22114AX  25347.19549681  .00000098  00000+0  24220-4 0  9999
2 53863  53.2180 312.4445 0001294  95.1078 265.0062 15.08836014180056
STARLINK-4779           
1 53864U 22114AY  25347.28376663 -.00001274  00000+0 -61962-4 0  9991
2 53864  53.2203 311.5810 0001704 104.4181 255.7001 15.08834993180079
STARLINK-4762           
1 53866U 22114BA  25347.07592079 -.00000747  00000+0 -28860-4 0  9995
2 53866  53.2176 293.1544 0001332  82.2345 277.8799 15.08837357180314
