[{"OBJECT_NAME":"STARLINK-4770","OBJECT_ID":"2022-114AH","EPOCH":"2025-12-13T07:29:44.291616","MEAN_MOTION":15.08835077,"ECCENTRICITY":0.00012813,"INCLINATION":53.2195,"RA_OF_ASC_NODE":321.738,"ARG_OF_PERICENTER":88.3685,"MEAN_ANOMALY":271.7454,"EPHEMERIS_TYPE":0,"CLASSIFICATION_TYPE":"U","NORAD_CAT_ID":53849,"ELEMENT_SET_NO":999,"REV_AT_EPOCH":17993,"BSTAR":4.424673e-5,"MEAN_MOTION_DOT":4.16e-6,"MEAN_MOTION_DDOT":0},{"OBJECT_NAME":"STARLINK-4767","OBJECT_ID":"2022-114AJ","EPOCH":"2025-12-13T05:22:30.964800","MEAN_MOTION":15.08847326,"ECCENTRICITY":0.0001437,"INCLINATION":53.2183,"RA_OF_ASC_NODE":321.8949,"ARG_OF_PERICENTER":88.1912,"MEAN_ANOMALY":271.9245,"EPHEMERIS_TYPE":0,"CLASSIFICATION_TYPE":"U","NORAD_CAT_ID":53850,"ELEMENT_SET_NO":999,"REV_AT_EPOCH":17992,"BSTAR":-0.00016349749,"MEAN_MOTION_DOT":-2.89e-5,"MEAN_MOTION_DDOT":0},{"OBJECT_NAME":"STARLINK-4755","OBJECT_ID":"2022-114AK","EPOCH":"2025-12-13T07:19:07.416480","MEAN_MOTION":15.08834902,"ECCENTRICITY":0.00015147,"INCLINATION":53.2213,"RA_OF_ASC_NODE":321.6952,"ARG_OF_PERICENTER":102.1574,"MEAN_ANOMALY":257.9588,"EPHEMERIS_TYPE":0,"CLASSIFICATION_TYPE":"U","NORAD_CAT_ID":53851,"ELEMENT_SET_NO":999,"REV_AT_EPOCH":17993,"BSTAR":1.9900956e-5,"MEAN_MOTION_DOT":2.9e-7,"MEAN_MOTION_DDOT":0},{"OBJECT_NAME":"STARLINK-4797","OBJECT_ID":"2022-114AL","EPOCH":"2025-12-13T04:27:35.337888","MEAN_MOTION":15.08837641,"ECCENTRICITY":0.00014523,"INCLINATION":53.2196,"RA_OF_ASC_NODE":317.3819,"ARG_OF_PERICENTER":94.4911,"MEAN_ANOMALY":265.6247,"EPHEMERIS_TYPE":0,"CLASSIFICATION_TYPE":"U","NORAD_CAT_ID":53852,"ELEMENT_SET_NO":999,"REV_AT_EPOCH":17998,"BSTAR":1.7623905e-5,"MEAN_MOTION_DOT":-7.0e-8,"MEAN_MOTION_DDOT":0},{"OBJECT_NAME":"STARLINK-4794","OBJECT_ID":"2022-114AM","EPOCH":"2025-12-13T05:33:08.065440","MEAN_MOTION":15.08829074,"ECCENTRICITY":0.00017885,"INCLINATION":53.2207,"RA_OF_ASC_NODE":321.9474,"ARG_OF_PERICENTER":91.0997,"MEAN_ANOMALY":269.02,"EPHEMERIS_TYPE":0,"CLASSIFICATION_TYPE":"U","NORAD_CAT_ID":53853,"ELEMENT_SET_NO":999,"REV_AT_EPOCH":17992,"BSTAR":6.8103046e-5,"MEAN_MOTION_DOT":7.96e-6,"MEAN_MOTION_DDOT":0},{"OBJECT_NAME":"STARLINK-4800","OBJECT_ID":"2022-114AN","EPOCH":"2025-12-13T06:43:26.369184","MEAN_MOTION":15.08833742,"ECCENTRICITY":0.00015126,"INCLINATION":53.2177,"RA_OF_ASC_NODE":312.2623,"ARG_OF_PERICENTER":91.0476,"MEAN_ANOMALY":269.0689,"EPHEMERIS_TYPE":0,"CLASSIFICATION_TYPE":"U","NORAD_CAT_ID":53854,"ELEMENT_SET_NO":999,"REV_AT_EPOCH":18006,"BSTAR":0.00016747917,"MEAN_MOTION_DOT":2.378e-5,"MEAN_MOTION_DDOT":0},{"OBJECT_NAME":"STARLINK-4703","OBJECT_ID":"2022-114AP","EPOCH":"2025-12-13T05:39:49.384800","MEAN_MOTION":15.0882925,"ECCENTRICITY":0.000172,"INCLINATION":53.2189,"RA_OF_ASC_NODE":321.9712,"ARG_OF_PERICENTER":101.9524,"MEAN_ANOMALY":258.1661,"EPHEMERIS_TYPE":0,"CLASSIFICATION_TYPE":"U","NORAD_CAT_ID":53855,"ELEMENT_SET_NO":999,"REV_AT_EPOCH":17992,"BSTAR":-2.654247e-6,"MEAN_MOTION_DOT":-3.3e-6,"MEAN_MOTION_DDOT":0},{"OBJECT_NAME":"STARLINK-4795","OBJECT_ID":"2022-114AQ","EPOCH":"2025-12-13T04:46:49.380960","MEAN_MOTION":15.08820031,"ECCENTRICITY":0.00011418,"INCLINATION":53.2187,"RA_OF_ASC_NODE":312.4747,"ARG_OF_PERICENTER":86.5706,"MEAN_ANOMALY":273.5416,"EPHEMERIS_TYPE":0,"CLASSIFICATION_TYPE":"U","NORAD_CAT_ID":53856,"ELEMENT_SET_NO":999,"REV_AT_EPOCH":18005,"BSTAR":-0.00027695024,"MEAN_MOTION_DOT":-4.69e-5,"MEAN_MOTION_DDOT":0},{"OBJECT_NAME":"STARLINK-4809","OBJECT_ID":"2022-114AR","EPOCH":"2025-12-13T05:17:12.056352","MEAN_MOTION":15.08843229,"ECCENTRICITY":0.00013065,"INCLINATION":53.2182,"RA_OF_ASC_NODE":321.8732,"ARG_OF_PERICENTER":88.0765,"MEAN_ANOMALY":272.0377,"EPHEMERIS_TYPE":0,"CLASSIFICATION_TYPE":"U","NORAD_CAT_ID":53857,"ELEMENT_SET_NO":999,"REV_AT_EPOCH":17992,"BSTAR":6.789722e-5,"MEAN_MOTION_DOT":7.93e-6,"MEAN_MOTION_DDOT":0},{"OBJECT_NAME":"STARLINK-4798","OBJECT_ID":"2022-114AS","EPOCH":"2025-12-13T06:38:07.575648","MEAN_MOTION":15.08841671,"ECCENTRICITY":0.00011592,"INCLINATION":53.2188,"RA_OF_ASC_NODE":312.2387,"ARG_OF_PERICENTER":79.7445,"MEAN_ANOMALY":280.3678,"EPHEMERIS_TYPE":0,"CLASSIFICATION_TYPE":"U","NORAD_CAT_ID":53858,"ELEMENT_SET_NO":999,"REV_AT_EPOCH":18006,"BSTAR":8.4508152e-5,"MEAN_MOTION_DOT":1.057e-5,"MEAN_MOTION_DDOT":0},{"OBJECT_NAME":"STARLINK-4790","OBJECT_ID":"2022-114AT","EPOCH":"2025-12-13T05:25:50.409696","MEAN_MOTION":15.0882941,"ECCENTRICITY":0.00015143,"INCLINATION":53.2213,"RA_OF_ASC_NODE":316.9298,"ARG_OF_PERICENTER":101.1235,"MEAN_ANOMALY":258.9928,"EPHEMERIS_TYPE":0,"CLASSIFICATION_TYPE":"U","NORAD_CAT_ID":53859,"ELEMENT_SET_NO":999,"REV_AT_EPOCH":17999,"BSTAR":3.1032874e-5,"MEAN_MOTION_DOT":2.06e-6,"MEAN_MOTION_DDOT":0},{"OBJECT_NAME":"STARLINK-4799","OBJECT_ID":"2022-114AU","EPOCH":"2025-12-13T04:52:08.212512","MEAN_MOTION":15.08822698,"ECCENTRICITY":9.162e-5,"INCLINATION":53.218,"RA_OF_ASC_NODE":312.4893,"ARG_OF_PERICENTER":82.8769,"MEAN_ANOMALY":277.2327,"EPHEMERIS_TYPE":0,"CLASSIFICATION_TYPE":"U","NORAD_CAT_ID":53860,"ELEMENT_SET_NO":999,"REV_AT_EPOCH":17981,"BSTAR":-0.00014298877,"MEAN_MOTION_DOT":-2.561e-5,"MEAN_MOTION_DDOT":0},{"OBJECT_NAME":"STARLINK-4781","OBJECT_ID":"2022-114AV","EPOCH":"2025-12-13T04:57:26.059104","MEAN_MOTION":15.08836832,"ECCENTRICITY":0.00013552,"INCLINATION":53.2203,"RA_OF_ASC_NODE":312.5187,"ARG_OF_PERICENTER":90.6631,"MEAN_ANOMALY":269.4517,"EPHEMERIS_TYPE":0,"CLASSIFICATION_TYPE":"U","NORAD_CAT_ID":53861,"ELEMENT_SET_NO":999,"REV_AT_EPOCH":18005,"BSTAR":9.8488291e-5,"MEAN_MOTION_DOT":1.28e-5,"MEAN_MOTION_DDOT":0},{"OBJECT_NAME":"STARLINK-4788","OBJECT_ID":"2022-114AX","EPOCH":"2025-12-13T04:41:30.924384","MEAN_MOTION":15.08836014,"ECCENTRICITY":0.00012949,"INCLINATION":53.218,"RA_OF_ASC_NODE":312.4445,"ARG_OF_PERICENTER":95.1078,"MEAN_ANOMALY":265.0062,"EPHEMERIS_TYPE":0,"CLASSIFICATION_TYPE":"U","NORAD_CAT_ID":53863,"ELEMENT_SET_NO":999,"REV_AT_EPOCH":18005,"BSTAR":2.4220353e-5,"MEAN_MOTION_DOT":9.8e-7,"MEAN_MOTION_DDOT":0},{"OBJECT_NAME":"STARLINK-4779","OBJECT_ID":"2022-114AY","EPOCH":"2025-12-13T06:48:37.436832","MEAN_MOTION":15.08834993,"ECCENTRICITY":0.00017049,"INCLINATION":53.2203,"RA_OF_ASC_NODE":311.581,"ARG_OF_PERICENTER":104.4181,"MEAN_ANOMALY":255.7001,"EPHEMERIS_TYPE":0,"CLASSIFICATION_TYPE":"U","NORAD_CAT_ID":53864,"ELEMENT_SET_NO":999,"REV_AT_EPOCH":18007,"BSTAR":-6.1962352e-5,"MEAN_MOTION_DOT":-1.274e-5,"MEAN_MOTION_DDOT":0},{"OBJECT_NAME":"STARLINK-4762","OBJECT_ID":"2022-114BA","EPOCH":"2025-12-13T01:49:19.556256","MEAN_MOTION":15.08837357,"ECCENTRICITY":0.00013328,"INCLINATION":53.2176,"RA_OF_ASC_NODE":293.1544,"ARG_OF_PERICENTER":82.2345,"MEAN_ANOMALY":277.8799,"EPHEMERIS_TYPE":0,"CLASSIFICATION_TYPE":"U","NORAD_CAT_ID":53866,"ELEMENT_SET_NO":999,"REV_AT_EPOCH":18031,"BSTAR":-2.8859627e-5,"MEAN_MOTION_DOT":-7.47e-6,"MEAN_MOTION_DDOT":0}]
